#aV2011  8 11  0  0   .00000000      96 DD+AD WGS84 FIT  NGA
## 1648 345600.00000000   900.00000000 55784  .0000000000000
+   32     1  2  3  4  5  6  7  8  9 10 11 12 13 14 15 16 17
+         18 19 20 21 22 23 24 25 26 27 28 29 30 31 32  0  0
+          0  0  0  0  0  0  0  0  0  0  0  0  0  0  0  0  0
+          0  0  0  0  0  0  0  0  0  0  0  0  0  0  0  0  0
+          0  0  0  0  0  0  0  0  0  0  0  0  0  0  0  0  0
++         0  0  0  0  0  0  0  0  0  0  0  0  0  0  0  0  0
++         0  0  0  0  0  0  0  0  0  0  0  0  0  0  0  0  0
++         0  0  0  0  0  0  0  0  0  0  0  0  0  0  0  0  0
++         0  0  0  0  0  0  0  0  0  0  0  0  0  0  0  0  0
++         0  0  0  0  0  0  0  0  0  0  0  0  0  0  0  0  0
%c cc cc ccc ccc cccc cccc cccc cccc ccccc ccccc ccccc ccccc
%c cc cc ccc ccc cccc cccc cccc cccc ccccc ccccc ccccc ccccc
%f  0.0000000  0.000000000  0.00000000000  0.000000000000000
%f  0.0000000  0.000000000  0.00000000000  0.000000000000000
%i    0    0    0    0      0      0      0      0         0
%i    0    0    0    0      0      0      0      0         0
/*      NGA, ST. LOUIS,MO.                                  
/*   EPHEMERIS COMPUTED FROM  3 DAYS OF DATA                
/* CCCCCCCCCCCCCCCCCCCCCCCCCCCCCCCCCCCCCCCCCCCCCCCCCCCCCCCCC
/* CCCCCCCCCCCCCCCCCCCCCCCCCCCCCCCCCCCCCCCCCCCCCCCCCCCCCCCCC
*  2011  8 11  2  0   .00000000                                                 
P  1  -1957.591704  15404.644097 -21892.531745     -7.680775                    
V  1 -26120.542427  -7545.551462  -2984.386634       .012095                    
P  2    585.215009 -16046.179131  21269.164908    350.771015                    
V  2  25897.168335   7240.567115   4273.194387       .017314                    
P  3  -6827.250852  22574.804427 -12340.537223    753.332995                    
V  3 -12194.217795   9608.362587  25527.478280       .049072                    
P  4  17113.738544  -8728.949956  18262.836069    197.938970                    
V  4  22033.334028   8595.330978 -16004.795310       .110227                    
P  5   -809.030183 -25564.026107   6935.713798   -202.163531                    
V  5   4901.570516   7963.234821  29982.949192      -.054117                    
P  6 -12319.206793  21729.310973  -8513.206014   -100.035495                    
V  6 -10256.242499   5548.859686  28760.090670       .104715                    
P  7  25822.909283   5408.232388  -4007.903342     21.528645                    
V  7   4161.470504   3578.307272  31376.497740       .016465                    
P  8  23526.273610    624.450932 -12824.386459      8.802820                    
V  8  14510.769002   6969.022863  26345.824005      -.000066                    
P  9 -17349.704126 -14813.838080 -14138.054154     98.431454                    
V  9  16720.979872   3309.900530 -24994.641527       .025240                    
P 10  11019.391162 -14398.675801  19061.053407     -9.576094                    
V 10   6672.596619  23983.200330  14472.238698      -.011916                    
P 11  16271.216505  13908.920210 -16257.758933   -175.880286                    
V 11 -20282.633383   2019.309323 -18616.736095      -.033387                    
P 12 -11912.909339 -21232.174417  10835.026141     15.036775                    
V 12   -924.309809 -13761.260193 -27839.253325       .024658                    
P 13  18687.875267   1017.153895  18735.975299    256.962110                    
V 13 -18270.446687  15579.067104  17175.044559      -.017892                    
P 14 -21672.199462  14747.773458  -3570.595255    166.405398                    
V 14   2238.205745  -4756.614888 -31896.865480       .020104                    
P 15  -5103.512662 -15718.844666 -20751.226025   -111.373046                    
V 15  19706.276614 -17660.557832   8695.418119       .018245                    
P 16    676.975875  25680.202347   6107.587327   -190.982089                    
V 16  -3868.722578  -7194.875531  31034.174924      -.023090                    
P 17  21002.580678 -15807.349368  -2676.846254    179.650276                    
V 17   -761.707581   4597.863543 -31688.343208      -.012537                    
P 18 -16230.721372  -3022.511059 -20531.761814    151.678363                    
V 18  -4838.913443 -26451.335193   7223.601664       .018980                    
P 19   1018.961187  17142.565693 -20180.434549   -171.638106                    
V 19 -21020.239747  14827.939591  11899.751379      -.040772                    
P 20  14172.053694  19098.050013  11747.926054     51.592362                    
V 20    952.278383  15459.778332 -25904.161873       .004153                    
P 21 -25830.580944  -3402.081866  -6169.468133   -163.855162                    
V 21  -6939.519415  -5512.711355  29396.368475      -.025347                    
P 22 -12596.857089  12072.538694 -19816.939695    145.434981                    
V 22  -6629.402783 -24877.880900 -10955.771070      -.002825                    
P 23  12210.289378   9289.867870  21719.471729    285.025640                    
V 23 -20318.034098  18541.832134   3138.516346      -.029531                    
P 24  19674.053051  14969.169103 -10058.207967    414.280297                    
V 24 -12887.525829  -1956.402642 -27677.644167       .032314                    
P 25 -15787.538379 -10407.487117  18634.329501     13.385916                    
V 25  -4190.008353 -23367.438424 -16549.058874       .018110                    
P 26   7211.606984 -19706.553646 -16629.688287   -119.609016                    
V 26  16644.266793 -11372.025011  21849.004122      -.123384                    
P 27 -13137.337564 -15150.866120 -16950.694595    293.556937                    
V 27  22217.122456   4416.132601 -20050.817053       .039562                    
P 28  13161.024102  -7772.164501 -21167.097198     58.631626                    
V 28   5694.254068  27539.367543  -6660.751757       .029041                    
P 29 -18633.447308  -1405.391427  18929.576963    230.405159                    
V 29  17256.520370 -16590.130228  15857.292390       .030393                    
P 30 -16254.482397 -13560.648861  15692.885838     94.406665                    
V 30  -4550.677357 -20213.554241 -21653.152860      -.019180                    
P 31 -13956.608731   9976.873344  20533.267848    124.551720                    
V 31 -24075.355749  -8475.037434 -12159.498549       .057506                    
P 32   7876.915134  24899.752668   6227.334175   -308.304766                    
V 32  -1478.282648   7746.321019 -30017.706063      -.069680                    
EOF
